ONEWEB-0328             
1 49197U 21083M   24132.49393439  .00000057  00000+0  12227-3 0  9998
2 49197  87.8890 112.8471 0002052  82.3936 277.7426 13.13471494131542
ONEWEB-0331             
1 49198U 21083N   24132.49227536  .00000139  00000+0  32021-3 0  9998
2 49198  87.9120 128.0780 0002010  83.7673 276.3688 13.18684684130242
ONEWEB-0333             
1 49199U 21083P   24131.95593331 -.00000027  00000+0 -10944-3 0  9996
2 49199  87.8903 112.9766 0001898  91.8689 268.2657 13.13470406130197
ONEWEB-0334             
1 49200U 21083Q   24132.52801544  .00000180  00000+0  41041-3 0  9991
2 49200  87.9203  67.0226 0001751 105.4559 254.6768 13.20772788136881
ONEWEB-0335             
1 49201U 21083R   24132.40824312  .00000501  00000+0  13356-2 0  9991
2 49201  87.8903 112.8750 0002122  83.8782 276.2589 13.13471307131554
ONEWEB-0336             
1 49202U 21083S   24132.68278694  .00000019  00000+0  17862-4 0  9990
2 49202  87.8903 112.8169 0001894  89.5170 270.6176 13.13472873131591
ONEWEB-0337             
1 49203U 21083T   24132.00659873  .00000364  00000+0  96117-3 0  9991
2 49203  87.8902 112.9504 0002123  83.7711 276.3660 13.13470721131500
ONEWEB-0338             
1 49204U 21083U   24132.53432622  .00000145  00000+0  32539-3 0  9996
2 49204  87.9211  67.0028 0002147  92.6510 267.4869 13.20772130136917
ONEWEB-0339             
1 49205U 21083V   24132.32254129  .00000453  00000+0  12046-2 0  9990
2 49205  87.8899 112.8833 0002174  86.1664 273.9714 13.13468192131525
ONEWEB-0340             
1 49206U 21083W   24132.47804972  .00000184  00000+0  43461-3 0  9991
2 49206  87.9122 128.0752 0001994  84.1195 276.0165 13.18685629130211
ONEWEB-0341             
1 49207U 21083X   24131.95482661 -.00000006  00000+0 -47798-4 0  9994
2 49207  87.9119 128.1938 0002792  85.2500 274.8951 13.18685728130167
ONEWEB-0342             
1 49208U 21083Y   24132.54063618  .00000104  00000+0  22295-3 0  9999
2 49208  87.9204  67.0147 0002036  86.4690 273.6677 13.20771030136882
ONEWEB-0343             
1 49209U 21083Z   24132.48121385  .00000185  00000+0  43731-3 0  9996
2 49209  87.9115 128.0983 0002672  88.5976 271.5462 13.18686405130281
ONEWEB-0344             
1 49210U 21083AA  24132.89862289 -.00000280  00000+0 -80239-3 0  9990
2 49210  87.8908 112.7845 0002318  79.4192 280.7198 13.13473444131602
ONEWEB-0345             
1 49211U 21083AB  24131.92578971  .00000181  00000+0  46098-3 0  9999
2 49211  87.8898 112.9548 0002381  75.4428 284.6965 13.13470850131480
ONEWEB-0346             
1 49212U 21083AC  24132.03543811  .00000030  00000+0  43946-4 0  9991
2 49212  87.9118 128.1863 0001833  76.0862 284.0473 13.18684648130165
ONEWEB-0348             
1 49213U 21083AD  24132.53117531  .00000280  00000+0  65721-3 0  9994
2 49213  87.9212  66.9854 0002290  63.1409 296.9958 13.20773283136918
ONEWEB-0350             
1 49214U 21083AE  24132.46854138  .00000430  00000+0  11433-2 0  9995
2 49214  87.8900 112.8379 0002293  78.5444 281.5943 13.13472420131580
ONEWEB-0351             
1 49215U 21083AF  24132.90350723  .00000045  00000+0  77716-4 0  9996
2 49215  87.9208  66.9116 0002228 106.5382 253.5996 13.20771540136936
ONEWEB-0352             
1 49216U 21083AG  24132.44949916  .00000124  00000+0  30379-3 0  9995
2 49216  87.8902 112.8716 0002153  93.9913 266.1463 13.13472875131676
ONEWEB-0354             
1 49217U 21083AH  24132.55011632  .00000127  00000+0  27941-3 0  9997
2 49217  87.9212  66.9660 0002352  77.5471 282.5925 13.20772243136925
ONEWEB-0355             
1 49218U 21083AJ  24132.47965771  .00000427  00000+0  11344-2 0  9993
2 49218  87.8903 112.8649 0002173  87.0987 273.0391 13.13471200131556
ONEWEB-0357             
1 49219U 21083AK  24132.54695467  .00000135  00000+0  29890-3 0  9996
2 49219  87.9207  66.9861 0002204  85.0236 275.1149 13.20771281136919
ONEWEB-0332             
1 49279U 21090A   24131.87524633 -.00000096  00000+0 -29314-3 0  9990
2 49279  87.8947  82.3956 0001797  92.1610 267.9726 13.14503794126771
ONEWEB-0347             
1 49280U 21090B   24132.53748990  .00000153  00000+0  34327-3 0  9992
2 49280  87.9211  66.9861 0001800  93.6068 266.5271 13.20772130129849
ONEWEB-0349             
1 49281U 21090C   24132.87207913  .00000019  00000+0  15024-4 0  9990
2 49281  87.9214  66.9182 0002168  75.5880 284.5494 13.20771490129966
ONEWEB-0353             
1 49282U 21090D   24132.55237850  .00000189  00000+0  47478-3 0  9994
2 49282  87.8949  82.2453 0001884  90.4362 269.6984 13.14503861128154
ONEWEB-0356             
1 49283U 21090E   24132.87049078  .00000086  00000+0  17861-3 0  9992
2 49283  87.9212  66.9137 0001371  55.9804 304.1460 13.20772054129968
ONEWEB-0358             
1 49284U 21090F   24132.82471949  .00000095  00000+0  20220-3 0  9997
2 49284  87.9212  66.9087 0001995  70.7694 289.3655 13.20772055130689
ONEWEB-0359             
1 49285U 21090G   24131.83673636  .00000091  00000+0  19254-3 0  9996
2 49285  87.9211  67.1247 0002465  75.2196 284.9211 13.20771214129245
ONEWEB-0360             
1 49286U 21090H   24132.50907940  .00000088  00000+0  18338-3 0  9998
2 49286  87.9210  66.9953 0002116  79.1227 281.0144 13.20772583129936
ONEWEB-0361             
1 49287U 21090J   24131.88406947 -.00000183  00000+0 -48159-3 0  9992
2 49287  87.9211  67.1142 0001852  79.3092 280.8250 13.20772393129012
ONEWEB-0362             
1 49288U 21090K   24132.89691289  .00000025  00000+0  31220-4 0  9995
2 49288  87.9124  97.4889 0002380  89.7901 270.3505 13.19724961126662
ONEWEB-0363             
1 49289U 21090L   24132.20289415  .00000151  00000+0  33925-3 0  9998
2 49289  87.9211  67.0458 0001790  68.8856 291.2469 13.20772699129898
ONEWEB-0364             
1 49290U 21090M   24132.84683328  .00000153  00000+0  34369-3 0  9996
2 49290  87.9212  66.9421 0001915  80.8217 279.3133 13.20774211131107
ONEWEB-0365             
1 49291U 21090N   24132.37567546  .00000209  00000+0  49045-3 0  9997
2 49291  87.9118  97.5757 0002135  88.0173 272.1205 13.19726083126579
ONEWEB-0366             
1 49292U 21090P   24132.54921064  .00000271  00000+0  69608-3 0  9992
2 49292  87.8948  82.2547 0001829  84.4942 275.6396 13.14504070128140
ONEWEB-0367             
1 49293U 21090Q   24132.20129845  .00000153  00000+0  34530-3 0  9998
2 49293  87.9212  67.0405 0001810  85.6905 274.4435 13.20771597129882
ONEWEB-0368             
1 49294U 21090R   24132.85628766  .00000093  00000+0  19678-3 0  9995
2 49294  87.9214  66.9401 0001167  91.7389 268.3878 13.20771823131123
ONEWEB-0369             
1 49295U 21090S   24132.37093225  .00000170  00000+0  39277-3 0  9992
2 49295  87.9125  97.5770 0002009  89.7205 270.4158 13.19725046126565
ONEWEB-0370             
1 49296U 21090T   24131.83200255  .00000080  00000+0  16373-3 0  9998
2 49296  87.9211  67.1184 0002376  77.6217 282.5182 13.20774330128576
ONEWEB-0371             
1 49297U 21090U   24132.90954272  .00000091  00000+0  19590-3 0  9999
2 49297  87.9127  97.4593 0002169  88.3833 271.7548 13.19725035126677
ONEWEB-0372             
1 49298U 21090V   24132.88140994  .00000116  00000+0  25352-3 0  9996
2 49298  87.9213  66.9177 0002007  85.0657 275.0705 13.20771490129989
ONEWEB-0373             
1 49299U 21090W   24132.52959507  .00000120  00000+0  26335-3 0  9993
2 49299  87.9210  67.0044 0001642  79.3910 280.7408 13.20771566131120
ONEWEB-0374             
1 49300U 21090X   24132.38428962  .00000416  00000+0  10883-2 0  9994
2 49300  87.8948  82.2732 0001844  83.2179 276.9160 13.14504560128116
ONEWEB-0375             
1 49301U 21090Y   24132.81999550  .00000081  00000+0  16612-3 0  9994
2 49301  87.9211  66.9223 0001794  58.3152 301.8156 13.20772650130652
ONEWEB-0376             
1 49302U 21090Z   24132.37724691  .00000182  00000+0  42123-3 0  9996
2 49302  87.9119  97.5764 0002078  93.7109 266.4261 13.19725573126592
ONEWEB-0377             
1 49303U 21090AA  24132.27562372 -.00000352  00000+0 -89794-3 0  9998
2 49303  87.9210  67.0222 0002189  75.6369 284.5007 13.20773475130563
ONEWEB-0378             
1 49304U 21090AB  24132.82802916  .00000078  00000+0  16083-3 0  9995
2 49304  87.9214  66.9146 0001929  77.3592 282.7757 13.20772813129946
ONEWEB-0379             
1 49305U 21090AC  24131.92282056  .00000223  00000+0  56733-3 0  9991
2 49305  87.8947  82.3679 0001922  84.1470 275.9879 13.14501283126766
ONEWEB-0380             
1 49306U 21090AD  24132.44990735  .00000105  00000+0  23041-3 0  9995
2 49306  87.9126  97.5642 0002113  83.8399 276.2974 13.19725250126570
ONEWEB-0381             
1 49307U 21090AE  24132.87838367  .00000071  00000+0  14361-3 0  9992
2 49307  87.9213  66.9089 0002050  77.7908 282.3455 13.20774585129977
ONEWEB-0382             
1 49308U 21090AF  24131.88092674  .00000070  00000+0  14071-3 0  9993
2 49308  87.9211  67.1049 0001611  70.3456 289.7851 13.20772240128532
ONEWEB-0383             
1 49309U 21090AG  24132.29706838  .00000240  00000+0  61382-3 0  9990
2 49309  87.8942  82.2825 0001731  82.5670 277.5657 13.14504726128139
ONEWEB-0384             
1 49310U 21090AH  24132.55955759  .00000023  00000+0  24335-4 0  9996
2 49310  87.9212  66.9805 0001524  68.5372 291.5924 13.20769323129948
ONEWEB-0385             
1 49311U 21090AJ  24132.17606563  .00000066  00000+0  12927-3 0  9991
2 49311  87.9213  67.0583 0001762  70.8152 289.3172 13.20770965129877
ONEWEB-0386             
1 49312U 21090AK  24131.89039900 -.00000019  00000+0 -78111-4 0  9993
2 49312  87.9205  67.1125 0001701  76.7340 283.3982 13.20772002128538
ONEWEB-0387             
1 49313U 21090AL  24132.85945070  .00000089  00000+0  18743-3 0  9994
2 49313  87.9213  66.9793 0002034  70.9102 289.2251 13.20771272129979
ONEWEB-0388             
1 49314U 21090AM  24132.36935133  .00000181  00000+0  41875-3 0  9995
2 49314  87.9125  97.5834 0001851  84.7384 275.3959 13.19725054126567
